{"type": "FeatureCollection", "features": [ {"type": "Feature", "properties": {"norad_id": 34014, "name": "COSMOS 2251 DEB", "group": "cosmos-2251-debris", "lat": 33.858967844824754, "lon": 71.24282837926218, "alt_km": 655.0381972727782, "timestamp": "2025-12-22T04:03:39.561914+00:00", "meta": {"OBJECT_NAME": "COSMOS 2251 DEB", "OBJECT_ID": "1993-036GZ", "EPOCH": "2025-12-21T05:08:14.141184", "MEAN_MOTION": 14.73228686, "ECCENTRICITY": 0.00374091, "INCLINATION": 74.0175, "RA_OF_ASC_NODE": 264.1922, "ARG_OF_PERICENTER": 41.4794, "MEAN_ANOMALY": 78.904, "EPHEMERIS_TYPE": 0, "CLASSIFICATION_TYPE": "U", "NORAD_CAT_ID": 34014, "ELEMENT_SET_NO": 999, "REV_AT_EPOCH": 89428, "BSTAR": 0.00058417491, "MEAN_MOTION_DOT": 3.783e-05, "MEAN_MOTION_DDOT": 0}, "tle": {"line1": "1 34014U 93036GZ  25355.21405256  .00003783  00000+0  58417-3 0  9996", "line2": "2 34014  74.0175 264.1922 0037409  41.4794  78.9040 14.73228686894282"}}, "geometry": {"type": "Point", "coordinates": [71.24282837926218, 33.858967844824754]}}, {"type": "Feature", "properties": {"norad_id": 34015, "name": "COSMOS 2251 DEB", "group": "cosmos-2251-debris", "lat": -3.237763027447109, "lon": -37.662053827208766, "alt_km": 686.4889662210016, "timestamp": "2025-12-22T04:03:39.561924+00:00", "meta": {"OBJECT_NAME": "COSMOS 2251 DEB", "OBJECT_ID": "1993-036HA", "EPOCH": "2025-12-21T15:46:09.424128", "MEAN_MOTION": 14.60357388, "ECCENTRICITY": 0.002092, "INCLINATION": 74.0239, "RA_OF_ASC_NODE": 142.3875, "ARG_OF_PERICENTER": 239.0667, "MEAN_ANOMALY": 132.939, "EPHEMERIS_TYPE": 0, "CLASSIFICATION_TYPE": "U", "NORAD_CAT_ID": 34015, "ELEMENT_SET_NO": 999, "REV_AT_EPOCH": 88661, "BSTAR": 0.001078, "MEAN_MOTION_DOT": 5.203e-05, "MEAN_MOTION_DDOT": 0}, "tle": {"line1": "1 34015U 93036HA  25355.65705352  .00005203  00000+0  10780-2 0  9994", "line2": "2 34015  74.0239 142.3875 0020920 239.0667 132.9390 14.60357388886617"}}, "geometry": {"type": "Point", "coordinates": [-37.662053827208766, -3.237763027447109]}}, {"type": "Feature", "properties": {"norad_id": 34018, "name": "COSMOS 2251 DEB", "group": "cosmos-2251-debris", "lat": 18.120998847686035, "lon": -109.31398952534275, "alt_km": 834.8410381026315, "timestamp": "2025-12-22T04:03:39.561934+00:00", "meta": {"OBJECT_NAME": "COSMOS 2251 DEB", "OBJECT_ID": "1993-036HD", "EPOCH": "2025-12-21T06:43:04.930752", "MEAN_MOTION": 13.81081009, "ECCENTRICITY": 0.0263277, "INCLINATION": 73.878, "RA_OF_ASC_NODE": 77.6238, "ARG_OF_PERICENTER": 111.8742, "MEAN_ANOMALY": 307.0391, "EPHEMERIS_TYPE": 0, "CLASSIFICATION_TYPE": "U", "NORAD_CAT_ID": 34018, "ELEMENT_SET_NO": 999, "REV_AT_EPOCH": 84775, "BSTAR": 0.00029152, "MEAN_MOTION_DOT": 3.79e-06, "MEAN_MOTION_DDOT": 0}, "tle": {"line1": "1 34018U 93036HD  25355.27991818  .00000379  00000+0  29152-3 0  9992", "line2": "2 34018  73.8780  77.6238 0263277 111.8742 307.0391 13.81081009847750"}}, "geometry": {"type": "Point", "coordinates": [-109.31398952534275, 18.120998847686035]}}, {"type": "Feature", "properties": {"norad_id": 34019, "name": "COSMOS 2251 DEB", "group": "cosmos-2251-debris", "lat": -72.1708166390025, "lon": -30.093851566409935, "alt_km": 766.1077472346951, "timestamp": "2025-12-22T04:03:39.561945+00:00", "meta": {"OBJECT_NAME": "COSMOS 2251 DEB", "OBJECT_ID": "1993-036HE", "EPOCH": "2025-12-21T20:55:02.226720", "MEAN_MOTION": 14.33974961, "ECCENTRICITY": 0.0062355, "INCLINATION": 73.9532, "RA_OF_ASC_NODE": 33.9455, "ARG_OF_PERICENTER": 213.7954, "MEAN_ANOMALY": 327.4602, "EPHEMERIS_TYPE": 0, "CLASSIFICATION_TYPE": "U", "NORAD_CAT_ID": 34019, "ELEMENT_SET_NO": 999, "REV_AT_EPOCH": 87651, "BSTAR": 0.00058693, "MEAN_MOTION_DOT": 1.647e-05, "MEAN_MOTION_DDOT": 0}, "tle": {"line1": "1 34019U 93036HE  25355.87155355  .00001647  00000+0  58693-3 0  9998", "line2": "2 34019  73.9532  33.9455 0062355 213.7954 327.4602 14.33974961876517"}}, "geometry": {"type": "Point", "coordinates": [-30.093851566409935, -72.1708166390025]}}, {"type": "Feature", "properties": {"norad_id": 34021, "name": "COSMOS 2251 DEB", "group": "cosmos-2251-debris", "lat": -18.254274427218498, "lon": -62.45827106081924, "alt_km": 722.0872330365592, "timestamp": "2025-12-22T04:03:39.561954+00:00", "meta": {"OBJECT_NAME": "COSMOS 2251 DEB", "OBJECT_ID": "1993-036HG", "EPOCH": "2025-12-21T09:11:27.909888", "MEAN_MOTION": 14.4997632, "ECCENTRICITY": 0.00209884, "INCLINATION": 74.036, "RA_OF_ASC_NODE": 113.5998, "ARG_OF_PERICENTER": 256.8538, "MEAN_ANOMALY": 159.7796, "EPHEMERIS_TYPE": 0, "CLASSIFICATION_TYPE": "U", "NORAD_CAT_ID": 34021, "ELEMENT_SET_NO": 999, "REV_AT_EPOCH": 88755, "BSTAR": 0.00036322987, "MEAN_MOTION_DOT": 1.382e-05, "MEAN_MOTION_DDOT": 0}, "tle": {"line1": "1 34021U 93036HG  25355.38296192  .00001382  00000+0  36323-3 0  9994", "line2": "2 34021  74.0360 113.5998 0020988 256.8538 159.7796 14.49976320887554"}}, "geometry": {"type": "Point", "coordinates": [-62.45827106081924, -18.254274427218498]}}, {"type": "Feature", "properties": {"norad_id": 34022, "name": "COSMOS 2251 DEB", "group": "cosmos-2251-debris", "lat": 2.468578963176681, "lon": -105.87275088649109, "alt_km": 752.7159424494384, "timestamp": "2025-12-22T04:03:39.561964+00:00", "meta": {"OBJECT_NAME": "COSMOS 2251 DEB", "OBJECT_ID": "1993-036HH", "EPOCH": "2025-12-21T18:19:06.633408", "MEAN_MOTION": 14.38975548, "ECCENTRICITY": 0.0022996, "INCLINATION": 74.054, "RA_OF_ASC_NODE": 254.1687, "ARG_OF_PERICENTER": 317.6703, "MEAN_ANOMALY": 102.7935, "EPHEMERIS_TYPE": 0, "CLASSIFICATION_TYPE": "U", "NORAD_CAT_ID": 34022, "ELEMENT_SET_NO": 999, "REV_AT_EPOCH": 88325, "BSTAR": 0.00016903, "MEAN_MOTION_DOT": 4.97e-06, "MEAN_MOTION_DDOT": 0}, "tle": {"line1": "1 34022U 93036HH  25355.76327122  .00000497  00000+0  16903-3 0  9993", "line2": "2 34022  74.0540 254.1687 0022996 317.6703 102.7935 14.38975548883258"}}, "geometry": {"type": "Point", "coordinates": [-105.87275088649109, 2.468578963176681]}}, {"type": "Feature", "properties": {"norad_id": 34023, "name": "COSMOS 2251 DEB", "group": "cosmos-2251-debris", "lat": -22.877064950872555, "lon": -132.64944435228057, "alt_km": 748.3505445302189, "timestamp": "2025-12-22T04:03:39.561974+00:00", "meta": {"OBJECT_NAME": "COSMOS 2251 DEB", "OBJECT_ID": "1993-036HJ", "EPOCH": "2025-12-21T18:28:31.285056", "MEAN_MOTION": 14.4057784, "ECCENTRICITY": 0.0018803, "INCLINATION": 74.0243, "RA_OF_ASC_NODE": 235.0321, "ARG_OF_PERICENTER": 329.3756, "MEAN_ANOMALY": 96.3604, "EPHEMERIS_TYPE": 0, "CLASSIFICATION_TYPE": "U", "NORAD_CAT_ID": 34023, "ELEMENT_SET_NO": 999, "REV_AT_EPOCH": 88344, "BSTAR": 0.00022026, "MEAN_MOTION_DOT": 6.77e-06, "MEAN_MOTION_DDOT": 0}, "tle": {"line1": "1 34023U 93036HJ  25355.76980654  .00000677  00000+0  22026-3 0  9992", "line2": "2 34023  74.0243 235.0321 0018803 329.3756  96.3604 14.40577840883440"}}, "geometry": {"type": "Point", "coordinates": [-132.64944435228057, -22.877064950872555]}}, {"type": "Feature", "properties": {"norad_id": 34024, "name": "COSMOS 2251 DEB", "group": "cosmos-2251-debris", "lat": 9.19086839071053, "lon": 116.05771035927509, "alt_km": 790.3762044398418, "timestamp": "2025-12-22T04:03:39.561984+00:00", "meta": {"OBJECT_NAME": "COSMOS 2251 DEB", "OBJECT_ID": "1993-036HK", "EPOCH": "2025-12-21T20:40:10.055136", "MEAN_MOTION": 14.35405466, "ECCENTRICITY": 0.0021445, "INCLINATION": 74.0468, "RA_OF_ASC_NODE": 299.2747, "ARG_OF_PERICENTER": 348.0718, "MEAN_ANOMALY": 31.4298, "EPHEMERIS_TYPE": 0, "CLASSIFICATION_TYPE": "U", "NORAD_CAT_ID": 34024, "ELEMENT_SET_NO": 999, "REV_AT_EPOCH": 88155, "BSTAR": 0.00014423, "MEAN_MOTION_DOT": 3.89e-06, "MEAN_MOTION_DDOT": 0}, "tle": {"line1": "1 34024U 93036HK  25355.86122749  .00000389  00000+0  14423-3 0  9999", "line2": "2 34024  74.0468 299.2747 0021445 348.0718  31.4298 14.35405466881553"}}, "geometry": {"type": "Point", "coordinates": [116.05771035927509, 9.19086839071053]}}, {"type": "Feature", "properties": {"norad_id": 34026, "name": "COSMOS 2251 DEB", "group": "cosmos-2251-debris", "lat": -20.16538480496129, "lon": 147.74735684467777, "alt_km": 766.6570343116355, "timestamp": "2025-12-22T04:03:39.561994+00:00", "meta": {"OBJECT_NAME": "COSMOS 2251 DEB", "OBJECT_ID": "1993-036HM", "EPOCH": "2025-12-21T08:31:12.086400", "MEAN_MOTION": 13.6531918, "ECCENTRICITY": 0.03498541, "INCLINATION": 73.7668, "RA_OF_ASC_NODE": 322.9589, "ARG_OF_PERICENTER": 191.6609, "MEAN_ANOMALY": 328.0725, "EPHEMERIS_TYPE": 0, "CLASSIFICATION_TYPE": "U", "NORAD_CAT_ID": 34026, "ELEMENT_SET_NO": 999, "REV_AT_EPOCH": 83649, "BSTAR": 0.000378261, "MEAN_MOTION_DOT": 4.44e-06, "MEAN_MOTION_DDOT": 0}, "tle": {"line1": "1 34026U 93036HM  25355.35500100  .00000444  00000+0  37826-3 0  9990", "line2": "2 34026  73.7668 322.9589 0349854 191.6609 328.0725 13.65319180836491"}}, "geometry": {"type": "Point", "coordinates": [147.74735684467777, -20.16538480496129]}}, {"type": "Feature", "properties": {"norad_id": 34028, "name": "COSMOS 2251 DEB", "group": "cosmos-2251-debris", "lat": 34.48886575636786, "lon": 141.33779061483975, "alt_km": 835.0562050401468, "timestamp": "2025-12-22T04:03:39.562004+00:00", "meta": {"OBJECT_NAME": "COSMOS 2251 DEB", "OBJECT_ID": "1993-036HP", "EPOCH": "2025-12-21T09:46:13.960992", "MEAN_MOTION": 13.20629697, "ECCENTRICITY": 0.05435224, "INCLINATION": 73.8836, "RA_OF_ASC_NODE": 333.962, "ARG_OF_PERICENTER": 110.3178, "MEAN_ANOMALY": 8.103, "EPHEMERIS_TYPE": 0, "CLASSIFICATION_TYPE": "U", "NORAD_CAT_ID": 34028, "ELEMENT_SET_NO": 999, "REV_AT_EPOCH": 81122, "BSTAR": 0.00047266079, "MEAN_MOTION_DOT": 4.01e-06, "MEAN_MOTION_DDOT": 0}, "tle": {"line1": "1 34028U 93036HP  25355.40710603  .00000401  00000+0  47266-3 0  9991", "line2": "2 34028  73.8836 333.9620 0543522 110.3178   8.1030 13.20629697811223"}}, "geometry": {"type": "Point", "coordinates": [141.33779061483975, 34.48886575636786]}}]}